OTTER                   
1 62623U 25009Q   26068.72300813  .00012198  00000+0  45151-3 0  9990
2 62623  97.4065 151.3812 0003573 310.7710  49.3219 15.27809545 63722
STARLINK-34733          
1 66487U 25263C   26068.17221334  .00038612  00000+0  14055-2 0  9990
2 66487  43.0038 353.2895 0001439 252.0512 108.0183 15.27575434 18823
